0 COSMOS 1801
1 17145U 86092H   13281.74772471 -.00000015  00000-0  10033-4 0  1582
2 17145 074.0119 143.6610 0055030 238.2116 186.8342 12.58779058235463
0 COSMOS 1801
1 17145U 86092H   13284.07510456  .00000025  00000-0  24048-3 0  1595
2 17145 074.0115 140.5138 0055004 234.6856 293.5755 12.58778782235751
0 COSMOS 1801
1 17145U 86092H   13286.51341457  .00000014  00000-0  17820-3 0  1609
2 17145 074.0111 137.2166 0054968 230.9819 183.0135 12.58778970236066
0 COSMOS 1801
1 17145U 86092H   13288.83490249 -.00000009  00000-0  46044-4 0  1617
2 17145 074.0107 134.0774 0054930 227.4874 263.0307 12.58779405236358
0 COSMOS 1801
1 17145U 86092H   13291.06990450 -.00000046  00000-0 -17033-3 0  1623
2 17145 074.0108 131.0549 0054899 224.0991 311.1555 12.58779476236632
0 COSMOS 1801
1 17145U 86092H   13293.43326184 -.00000024  00000-0 -45688-4 0  1638
2 17145 074.0108 127.8588 0054868 220.5084 220.9453 12.58779352236938
0 COSMOS 1801
1 17145U 86092H   13295.48974604 -.00000005  00000-0  68850-4 0  1646
2 17145 074.0108 125.0777 0054843 217.3883 180.1039 12.58779146237199
